[{"OBJECT_NAME":"STARLINK-30469","OBJECT_ID":"2023-146F","EPOCH":"2026-03-09T22:00:01.999584","MEAN_MOTION":15.08741624,"ECCENTRICITY":0.00012153,"INCLINATION":42.9999,"RA_OF_ASC_NODE":312.1219,"ARG_OF_PERICENTER":254.0494,"MEAN_ANOMALY":345.6756,"EPHEMERIS_TYPE":0,"CLASSIFICATION_TYPE":"U","NORAD_CAT_ID":57896,"ELEMENT_SET_NO":999,"REV_AT_EPOCH":578,"BSTAR":0.099451711,"MEAN_MOTION_DOT":0.01743611,"MEAN_MOTION_DDOT":0},{"OBJECT_NAME":"COSMOS 1275 DEB","OBJECT_ID":"1981-053GB","EPOCH":"2026-03-09T12:07:35.563872","MEAN_MOTION":15.18010704,"ECCENTRICITY":0.0001087,"INCLINATION":82.9638,"RA_OF_ASC_NODE":94.4677,"ARG_OF_PERICENTER":59.5109,"MEAN_ANOMALY":300.6233,"EPHEMERIS_TYPE":0,"CLASSIFICATION_TYPE":"U","NORAD_CAT_ID":13481,"ELEMENT_SET_NO":999,"REV_AT_EPOCH":25258,"BSTAR":0.0069311321,"MEAN_MOTION_DOT":0.00143562,"MEAN_MOTION_DDOT":0}]
